
{
  "type" : "FeatureCollection",
  "features" : [{
     "type":"Feature",
        "properties" : {
           "srid"          : "4326",
           "id"            : "52939",
           "name"          : "Faroe Islands",
           "capital"       : "Торсхавн",
           "neighbour"     : "62149, 299133, 2978650",
           "continent"     : "europe",
           "challenge"     : "1",
           "size"          : "1395,74",
           "population"    : "48 351",
           "localname"     : "Føroyar",
           "official_name" : "Føroyar",
           "boundary"      : "administrative",
           "admin_level"   : "2",
           "note"          : "",
           "wikidata"      : "Q4628",
           "wikipedia"     : "en:Faroe Islands",
           "timestamp"     : "2019-12-08 22:59:02",
           "rpath"         : "52939,0",
           "alltags"       : {
              "flag" : "http://upload.wikimedia.org/wikipedia/commons/3/3c/Flag_of_the_Faroe_Islands.svg",
              "name:af" : "Faroëreilande",
              "name:am" : "ፋሮ ደሴቶች",
              "name:an" : "Islas Feroe",
              "name:ar" : "جزر فارو",
              "name:az" : "Farer adaları",
              "name:be" : "Фарэрскія астравы",
              "name:bg" : "Ферьорски острови",
              "name:bi" : "Faroe aelan",
              "name:br" : "Faero",
              "name:bs" : "Farska ostrva",
              "name:ca" : "Illes Fèroe",
              "name:ce" : "Фарерийн гІайренаш",
              "name:cs" : "Faerské ostrovy",
              "name:cy" : "Føroyar",
              "name:da" : "Færøerne",
              "name:dv" : "ފަރޮއޭ ޖަޒީރާ",
              "name:ee" : "Faroe Islands",
              "name:el" : "Νήσοι Φερόες",
              "name:en" : "Faroe Islands",
              "name:eo" : "Ferooj",
              "name:es" : "Islas Feroe",
              "name:et" : "Fääri saared",
              "name:eu" : "Faroeak",
              "name:fa" : "جزایر فارو",
              "name:fi" : "Färsaaret",
              "name:fo" : "Føroyar",
              "name:fr" : "Îles Féroé",
              "name:fy" : "Faeröer",
              "name:ga" : "Oileáin Fharó",
              "name:gd" : "Na h-Eileanan Fàro",
              "name:gl" : "Illas Feroe",
              "name:gu" : "ફરો દ્વિપસમૂહ",
              "name:gv" : "Ellanyn ny Geyrragh",
              "name:he" : "איי פארו",
              "name:hi" : "फ़रो द्वीपसमूह",
              "name:hr" : "Ferojski Otoci",
              "name:hu" : "Feröer",
              "name:hy" : "Ֆարերյան կղզիներ",
              "name:ia" : "Insulas Feroe",
              "name:id" : "Kepulauan Faroe",
              "name:io" : "Faero",
              "name:is" : "Færeyjar",
              "name:it" : "Fær Øer",
              "name:ja" : "フェロー諸島",
              "name:jv" : "Kapuloan Faroe",
              "name:ka" : "ფარერის კუნძულები",
              "name:kk" : "Фарер аралдары",
              "name:kl" : "Savalimmiut",
              "name:ko" : "페로 제도",
              "name:ku" : "Giravên Feroe",
              "name:kv" : "Фарер діяс",
              "name:kw" : "Ynysow Faroe",
              "name:la" : "Faeroae insulae",
              "name:li" : "Faeröer",
              "name:lt" : "Farerai",
              "name:lv" : "Fēru Salas",
              "name:mi" : "Moutere Faroe",
              "name:mk" : "Фарски Острови",
              "name:mn" : "Фарерын арлууд",
              "name:mr" : "फेरो द्वीपसमूह",
              "name:ms" : "Kepulauan Faroe",
              "name:mt" : "Gżejjer Faroe",
              "name:ne" : "फरोइ टापु",
              "name:nl" : "Faeröer",
              "name:nn" : "Færøyane",
              "name:no" : "Færøyene",
              "name:oc" : "Illas Feròe",
              "name:os" : "Фареры сакъадæхтæ",
              "name:pl" : "Wyspy Owcze",
              "name:pt" : "Ilhas Feroe",
              "name:qu" : "Pharuy",
              "name:rm" : "Inslas Feroe",
              "name:ro" : "Insulele Feroe",
              "name:ru" : "Фарерские острова",
              "name:rw" : "Ibirwa bya Farowe",
              "name:se" : "Fearsullot",
              "name:sh" : "Farski Otoci",
              "name:si" : "ෆාරෝ දිවයින්",
              "name:sk" : "Faerské ostrovy",
              "name:sl" : "Ferski otoki",
              "name:so" : "Jasiiradaha Feroe",
              "name:sq" : "Ishujt Faroe",
              "name:sr" : "Фарска Острва",
              "name:su" : "Kapuloan Faroe",
              "name:sv" : "Färöarna",
              "name:sw" : "Visiwa vya Faroe",
              "name:ta" : "பரோயே தீவுகள்",
              "name:tg" : "Ҷазираҳои Фаро",
              "name:th" : "หมู่เกาะแฟโร",
              "name:tl" : "Kapuluang Peroe",
              "name:tr" : "Faroe Adaları",
              "name:tt" : "Фарер утраулары",
              "name:uk" : "Фарерські острови",
              "name:ur" : "جزائرفارو",
              "name:vi" : "Quần đảo Faroe",
              "name:wo" : "Duni Faarow",
              "name:yo" : "Àwọn Erékùṣù Fàróè",
              "name:zh" : "法罗群岛",
              "int_name" : "Faroe Islands",
              "name:ace" : "Pulo-pulo Faroe",
              "name:als" : "Färöer",
              "name:ang" : "Faroisca Īega",
              "name:arz" : "جزر فارو",
              "name:ast" : "Islles Feroe",
              "name:bar" : "Färöer",
              "name:bpy" : "ফারো দ্বীপমালা",
              "name:bxr" : "Фарерын арлууд",
              "name:ckb" : "دوڕگەکانی فارۆ",
              "name:dsb" : "Färöje",
              "name:ext" : "Islas Feroes",
              "name:frp" : "Iles Fèroè",
              "name:frr" : "Färöer",
              "name:gag" : "Farer Adaları",
              "name:hsb" : "Fereje",
              "name:kaa" : "Farer atawları",
              "name:krc" : "Фарер айрымканла",
              "name:lij" : "Isoe Farœ",
              "name:lmo" : "Faroe",
              "name:nan" : "Mî-iûⁿ Kûn-tó",
              "name:nds" : "Färöer",
              "name:nov" : "Faro Isles",
              "name:pam" : "Faroe Islands",
              "name:pih" : "Faaro Ailen",
              "name:pms" : "Faròe",
              "name:rmy" : "Dvipa Faroe",
              "name:scn" : "Ìsuli Fær Øer",
              "name:sco" : "Faroe Islands",
              "name:stq" : "Färöer",
              "name:tum" : "Vilumba vya Faroe",
              "name:tzl" : "Föröjar",
              "name:vec" : "Ixołe Fær Øer",
              "name:vep" : "Fareran Sared",
              "name:war" : "Kapuropud-an Feroe",
              "name:wuu" : "法罗群岛",
              "name:xal" : "Форойсин Арлс",
              "name:xmf" : "ფარერიშ კოკეფი",
              "name:yue" : "法羅群島",
              "timezone" : "Atlantic/Faroe",
              "wikidata" : "Q4628",
              "ISO3166-1" : "FO",
              "wikipedia" : "en:Faroe Islands",
              "name:nds-nl" : "Faeröer",
              "official_name" : "Føroyar",
              "name:be-tarask" : "Фарэрскія астравы",
              "is_in:continent" : "Europe",
              "ISO3166-1:alpha2" : "FO",
              "ISO3166-1:numeric" : "234"}
           },
           "bbox"    : [-7.7983832, 61.288097, -6.1413264, 62.447617],
           "geometry": {"type":"MultiPolygon","coordinates":[[[[-7.7983834,62.0954228],[-7.7980334,62.0921161],[-7.7972229,62.0888273],[-7.7959556,62.0855703],[-7.7942369,62.0823591],[-7.7920744,62.0792075],[-7.7894774,62.0761289],[-7.7864574,62.0731365],[-7.783027,62.070243],[-7.7815386,62.0691127],[-7.635242,61.9594776],[-7.3932882,61.7772888],[-7.1579746,61.5990585],[-6.9618778,61.4497439],[-6.9596308,61.4480783],[-6.9580577,61.4469917],[-6.7545233,61.3094915],[-6.7520672,61.3078906],[-6.7476953,61.3053327],[-6.7429857,61.3029176],[-6.7379584,61.3006556],[-6.7326351,61.2985564],[-6.7270384,61.2966289],[-6.7211922,61.2948813],[-6.7151216,61.2933212],[-6.7088523,61.2919551],[-6.7024114,61.2907889],[-6.6958261,61.2898276],[-6.6891246,61.2890752],[-6.6823354,61.2885349],[-6.6754875,61.2882091],[-6.6686099,61.2880991],[-6.6617321,61.2882055],[-6.6548835,61.2885277],[-6.648093,61.2890644],[-6.6413898,61.2898134],[-6.6348023,61.2907713],[-6.6339856,61.2909187],[-6.6305976,61.291186],[-6.6238936,61.291934],[-6.617305,61.2928911],[-6.6108604,61.294053],[-6.6045869,61.295415],[-6.5985115,61.2969713],[-6.5926601,61.298715],[-6.5870575,61.3006388],[-6.5817279,61.3027346],[-6.5766939,61.3049933],[-6.5719772,61.3074053],[-6.5675978,61.3099604],[-6.5635748,61.3126476],[-6.5599253,61.3154554],[-6.5566648,61.3183719],[-6.5538075,61.3213847],[-6.551366,61.3244807],[-6.5493505,61.3276469],[-6.5477698,61.3308695],[-6.5466308,61.334135],[-6.5459387,61.3374292],[-6.5456964,61.3407381],[-6.5459052,61.3440476],[-6.5465643,61.3473434],[-6.5476218,61.3504908],[-6.4936045,61.4833587],[-6.4294774,61.6403613],[-6.3707697,61.7834],[-6.3166825,61.914595],[-6.2653858,62.0385031],[-6.2142523,62.1615168],[-6.1433955,62.3311564],[-6.14238,62.3339489],[-6.1416208,62.3372405],[-6.1413262,62.3405482],[-6.1414976,62.3438578],[-6.1421344,62.3471551],[-6.1432339,62.3504259],[-6.1447918,62.3536563],[-6.1468013,62.3568324],[-6.1492539,62.3599405],[-6.1521395,62.3629675],[-6.1544588,62.3650726],[-6.1587512,62.3687529],[-6.1597383,62.3695805],[-6.1634519,62.3724063],[-6.1675561,62.3751131],[-6.1720335,62.3776893],[-6.1768651,62.3801239],[-6.1820301,62.3824064],[-6.1875061,62.3845269],[-6.1932701,62.3864763],[-6.1992971,62.3882465],[-6.2055612,62.3898295],[-6.2081429,62.3904121],[-6.2534896,62.4002953],[-6.2573849,62.4011006],[-6.2634112,62.4021846],[-6.3377767,62.4143159],[-6.5247123,62.4447892],[-6.5253487,62.4448912],[-6.5321813,62.4458607],[-6.5391364,62.4466207],[-6.5461842,62.4471681],[-6.5532944,62.4475004],[-6.5604364,62.4476162],[-6.5675795,62.447515],[-6.5683083,62.4474924],[-6.8942409,62.4361288],[-7.2252263,62.4245847],[-7.2315993,62.4242597],[-7.2386349,62.4236937],[-7.2455753,62.4229153],[-7.2523906,62.4219278],[-7.2590515,62.4207354],[-7.2655294,62.4193433],[-7.2717963,62.4177574],[-7.2778255,62.4159847],[-7.283591,62.4140325],[-7.289068,62.4119096],[-7.2942331,62.4096248],[-7.2990642,62.4071881],[-7.3035406,62.4046099],[-7.3076433,62.4019013],[-7.3113544,62.3990738],[-7.3146586,62.3961398],[-7.3175413,62.3931116],[-7.3199907,62.3900025],[-7.3219961,62.3868255],[-7.3235494,62.3835945],[-7.3246437,62.3803233],[-7.3252748,62.3770258],[-7.3254446,62.3741153],[-7.3252762,62.3273876],[-7.5416372,62.2319202],[-7.7614268,62.1346297],[-7.7644977,62.1332028],[-7.7657797,62.132572],[-7.7693033,62.1308078],[-7.7727703,62.1289854],[-7.7771654,62.126392],[-7.7811883,62.1236693],[-7.7848214,62.1208292],[-7.7880496,62.1178839],[-7.7908587,62.1148458],[-7.7932373,62.1117282],[-7.795175,62.1085444],[-7.7966638,62.105308],[-7.7976972,62.1020329],[-7.7982713,62.0987331],[-7.7983834,62.0954228]]]]}
        } ]
}
