{
  "type" : "FeatureCollection",
  "features" : [{
     "type":"Feature",
        "properties" : {
           "srid"          : "4326",
           "id"            : "367988",
           "name"          : "Jersey",
           "capital"       : "Сент-Хельер",
           "neighbour"     : "2202162, 62149",
           "continent"     : "europe",
           "challenge"     : "1",
           "size"          : "118,2",
           "population"    : "105 500",
           "localname"     : "Jersey",
           "official_name" : "Bailiwick of Jersey",
           "boundary"      : "administrative",
           "admin_level"   : "2",
           "note"          : "",
           "wikidata"      : "Q785",
           "wikipedia"     : "fr:Jersey",
           "timestamp"     : "2019-12-08 22:59:02",
           "rpath"         : "367988,0",
           "alltags"       : {
              "flag" : "http://upload.wikimedia.org/wikipedia/commons/1/1c/Flag_of_Jersey.svg",
              "name:af" : "Jersey",
              "name:an" : "Jèrri",
              "name:ar" : "جيرزي",
              "name:az" : "Cersi",
              "name:be" : "Джэрсi",
              "name:bg" : "Джърси",
              "name:br" : "Jerzenez",
              "name:bs" : "Jersey",
              "name:ca" : "Jersey",
              "name:cs" : "Jersey",
              "name:cy" : "Jersey",
              "name:da" : "Jersey",
              "name:dv" : "ޖާސޭ",
              "name:el" : "Υερσέη",
              "name:en" : "Jersey",
              "name:eo" : "Ĵerzejo",
              "name:es" : "Jersey",
              "name:et" : "Jersey",
              "name:eu" : "Jersey",
              "name:fa" : "جرزی",
              "name:fi" : "Jersey",
              "name:fr" : "Jersey",
              "name:ga" : "Geirsí",
              "name:gd" : "Jersey",
              "name:gl" : "Illa de Jersey",
              "name:gv" : "Jersee",
              "name:he" : "ג'רזי",
              "name:hr" : "Jersey",
              "name:hu" : "Jersey",
              "name:hy" : "Ջերսի",
              "name:id" : "Jersey",
              "name:io" : "Jersey",
              "name:is" : "Jersey",
              "name:it" : "Isola di Jersey",
              "name:ja" : "ジャージー",
              "name:jv" : "Jersey",
              "name:ka" : "ჯერზი",
              "name:kn" : "ಜರ್ಸಿ",
              "name:ko" : "저지 섬",
              "name:kw" : "Jersi",
              "name:la" : "Caesarea Insula",
              "name:li" : "Jersey",
              "name:lt" : "Džersis",
              "name:lv" : "Džērsija",
              "name:mi" : "Tōrehe",
              "name:mr" : "जर्सी",
              "name:ms" : "Jersey",
              "name:ne" : "जर्सी",
              "name:nl" : "Jersey",
              "name:nn" : "Jersey",
              "name:no" : "Jersey",
              "name:oc" : "Jersey",
              "name:os" : "Джерси",
              "name:pa" : "ਜਰਸੀ",
              "name:pl" : "Jersey",
              "name:pt" : "Jersey",
              "name:ro" : "Insula Jersey",
              "name:ru" : "Джерси",
              "name:rw" : "Jersey",
              "name:sh" : "Jersey",
              "name:sk" : "Jersey",
              "name:sl" : "Jersey",
              "name:sq" : "Jersey",
              "name:sr" : "Џерзи",
              "name:su" : "Jersey",
              "name:sv" : "Jersey",
              "name:sw" : "Jersey",
              "name:ta" : "யேர்சி",
              "name:te" : "జెర్సీ",
              "name:th" : "เจอร์ซีย์",
              "name:tl" : "Hersey",
              "name:tr" : "Jersey",
              "name:tt" : "Җерси",
              "name:uk" : "Джерсі",
              "name:ur" : "جرزی",
              "name:vi" : "Jersey",
              "name:yo" : "Jersey",
              "name:zh" : "澤西島",
              "int_name" : "Jersey",
              "name:ace" : "Jersey",
              "name:als" : "Jersey",
              "name:ang" : "Cēsarēa",
              "name:ast" : "Xerséi",
              "name:bpy" : "জার্সি",
              "name:frp" : "Jèrseyi",
              "name:frr" : "Jersey",
              "name:lij" : "Jersey",
              "name:nan" : "Jersey",
              "name:nov" : "Jersey",
              "name:nrm" : "Jèrri",
              "name:pnb" : "جرسی",
              "name:sco" : "Jersey",
              "name:war" : "Jersey",
              "name:wuu" : "杰塞岛",
              "name:xal" : "Җерсин Арл",
              "name:yue" : "澤西島",
              "timezone" : "Europe/Jersey",
              "wikidata" : "Q785",
              "ISO3166-1" : "JE",
              "wikipedia" : "fr:Jersey",
              "alt_name:eo" : "Ĵersejo",
              "name:nds-nl" : "Jersey",
              "official_name" : "Bailiwick of Jersey",
              "name:be-tarask" : "Джэрсі",
              "is_in:continent" : "Europe",
              "ISO3166-1:alpha2" : "JE",
              "official_name:eo" : "Voktujo Ĵerzejo",
              "ISO3166-1:numeric" : "832"}
           },
           "bbox"    : [-2.5591667, 48.872166, -1.8333333, 49.460499],
           "geometry": {"type":"MultiPolygon","coordinates":[[[[-2.5591667,49.2208333],[-2.5253333,49.0595],[-2.5253333,48.9278333],[-2.2416667,48.8721667],[-2.0833333,48.8721667],[-1.9833333,48.8833333],[-1.9833333,48.9365844],[-1.9833333,48.9416667],[-1.9428333,48.9646667],[-1.8591667,49.0658333],[-1.8333333,49.1833333],[-1.8333333,49.2508333],[-1.8916667,49.3166667],[-1.9925,49.3646667],[-2.0975,49.4605],[-2.1335686,49.4074579],[-2.2176605,49.3624676],[-2.2950459,49.325767],[-2.3891134,49.2959748],[-2.4799491,49.2644641],[-2.5591667,49.2208333]]]]}
        } ]
}
