{
  "type" : "FeatureCollection",
  "features" : [{
     "type":"Feature",
        "properties" : {
           "srid"          : "4326",
           "id"            : "2186600",
           "name"          : "Tokelau",
           "capital"       : "Атафу",
            "neighbour"     : "2177266, 2186665, 556706, 2184233, 167454, 1872673, 1558556, 2186665,2177246",
           "continent"     : "oceania",
           "challenge"     : "1",
           "size"          : "10,12",
           "population"    : "1499 ",
           "localname"     : "Tokelau",
           "official_name" : "",
           "boundary"      : "administrative",
           "admin_level"   : "2",
           "note"          : "",
           "wikidata"      : "Q36823",
           "wikipedia"     : "en:Tokelau",
           "timestamp"     : "2019-12-07 13:18:02",
           "rpath"         : "2186600,0",
           "alltags"       : {
              "flag" : "http://upload.wikimedia.org/wikipedia/commons/8/8e/Flag_of_Tokelau.svg",
              "name:am" : "ቶክላው",
              "name:ar" : "توكلو",
              "name:be" : "Такелаў",
              "name:bg" : "Токелау",
              "name:bm" : "Tokelo",
              "name:bn" : "টোকেলাউ",
              "name:br" : "Tokelau",
              "name:ca" : "Tokelau",
              "name:cs" : "Tokelau",
              "name:da" : "Tokelau",
              "name:dz" : "ཏོ་ཀེ་ལའུ་ མཚོ་གླིང",
              "name:ee" : "Tokelau nutome",
              "name:el" : "Τοκελάου",
              "name:en" : "Tokelau",
              "name:eo" : "Tokelao",
              "name:es" : "Tokelau",
              "name:fa" : "توکلائو",
              "name:ff" : "Tokelaaw",
              "name:fi" : "Tokelau",
              "name:fr" : "Tokelau",
              "name:fy" : "Tokelaû",
              "name:ga" : "Oileáin Tócalá",
              "name:gu" : "ટોકેલાઉ",
              "name:ha" : "Takelau",
              "name:he" : "טוקלאו",
              "name:hi" : "तोकेलाउ",
              "name:hr" : "Tokelau",
              "name:hu" : "Tokelau-szigetek",
              "name:is" : "Tókelá",
              "name:ja" : "トケラウ",
              "name:km" : "តូខេឡៅ",
              "name:kn" : "ಟೊಕೆಲಾವ್",
              "name:ko" : "토켈라우",
              "name:ks" : "توکیلاو",
              "name:ku" : "Tokelau",
              "name:lg" : "Tokelawu",
              "name:lo" : "ໂຕເກເລົາ",
              "name:lt" : "Tokelau",
              "name:lv" : "Tokelau",
              "name:mg" : "Tokelao",
              "name:mk" : "Токелау",
              "name:ml" : "ടൊകെലാവു",
              "name:mn" : "Токелау",
              "name:mr" : "तोकेलाउ",
              "name:mt" : "Tokelaw",
              "name:ne" : "तोगो",
              "name:no" : "Tokelau",
              "name:or" : "ଟୋକେଲାଉ",
              "name:pl" : "Tokelau",
              "name:pt" : "Toquelau",
              "name:rn" : "Tokelawu",
              "name:ru" : "Токелау",
              "name:si" : "ටොකලාවු",
              "name:sk" : "Tokelau",
              "name:sr" : "Токелау",
              "name:sv" : "Tokelauöarna",
              "name:ta" : "டோகேலோ",
              "name:te" : "టోకేలావ్",
              "name:th" : "โตเกเลา",
              "name:ti" : "ቶክላው",
              "name:uk" : "Токелау",
              "name:ur" : "ٹوکیلاؤ",
              "name:vi" : "Tokelau",
              "name:yo" : "Orílẹ́ède Tokelau",
              "name:zh" : "托克劳",
              "name:zu" : "i-Tokelau",
              "int_name" : "Tokelau",
              "maritime" : "yes",
              "name:ast" : "Tokeláu",
              "name:kab" : "Ṭuklu",
              "timezone" : "Pacific/Fakaofo",
              "wikidata" : "Q36823",
              "ISO3166-1" : "TK",
              "wikipedia" : "en:Tokelau",
              "population" : "1411",
              "is_in:ocean" : "Pacific",
              "is_in:continent" : "Oceania",
              "ISO3166-1:alpha2" : "TK",
              "default_language" : "en",
              "ISO3166-1:numeric" : "772",
              "country_code_fips" : "TL",
              "country_code_iso3166_1_alpha_2" : "TK"}
           },
           "bbox"    : [-172.72137, -9.6442499, -170.97975, -8.3328629],
           "geometry": {"type":"MultiPolygon","coordinates":[[[[-172.7213673,-8.5302203],[-172.7202824,-8.5571435],[-172.7148345,-8.586639],[-172.709784,-8.6011373],[-172.7040143,-8.6289916],[-172.6963024,-8.6538984],[-172.6796306,-8.6880185],[-172.6592726,-8.7158588],[-172.6351739,-8.7391946],[-172.6171612,-8.7524465],[-172.5887967,-8.7680382],[-172.5613091,-8.77807],[-172.5326467,-8.784021],[-172.502871,-8.7857572],[-172.4627019,-8.7811886],[-172.4363338,-8.7726301],[-172.4184097,-8.7697915],[-172.3881007,-8.7599072],[-172.3597476,-8.745376],[-172.3333937,-8.7259856],[-172.3099895,-8.7021254],[-172.2908986,-8.6747278],[-172.2766507,-8.6445559],[-172.2663322,-8.604985],[-172.2639664,-8.5653046],[-172.2666596,-8.5309548],[-172.2739415,-8.4985014],[-172.2870494,-8.4666658],[-172.3061114,-8.4363277],[-172.3314469,-8.4088044],[-172.381936,-8.367507],[-172.4135174,-8.3503958],[-172.4400788,-8.3408142],[-172.4766132,-8.3338386],[-172.5268937,-8.3328631],[-172.5464933,-8.3348984],[-172.5726007,-8.34038],[-172.5977491,-8.3492597],[-172.6240167,-8.3626235],[-172.6473277,-8.3790797],[-172.6728244,-8.4038296],[-172.6935342,-8.4326752],[-172.7088047,-8.4647109],[-172.7182884,-8.4996804],[-172.7213673,-8.5302203]]],[[[-172.0693829,-9.1779052],[-172.0682771,-9.1998979],[-172.0636054,-9.2280337],[-172.0549553,-9.2552253],[-172.0432339,-9.2799201],[-172.0288649,-9.3019711],[-172.0156322,-9.3189549],[-171.9974597,-9.3368121],[-171.9775921,-9.359431],[-171.946756,-9.3846564],[-171.9115106,-9.403343],[-171.870595,-9.4181316],[-171.8557782,-9.4221972],[-171.826374,-9.4284325],[-171.7905962,-9.4316963],[-171.7553018,-9.4287312],[-171.7213208,-9.4197627],[-171.7067534,-9.4147641],[-171.6744558,-9.3996031],[-171.6453646,-9.3790166],[-171.6214326,-9.3548002],[-171.6064578,-9.3353478],[-171.5881866,-9.3067912],[-171.5738498,-9.271979],[-171.5659701,-9.23763],[-171.5642748,-9.2024424],[-171.5688135,-9.1675062],[-171.5809632,-9.1302556],[-171.5788239,-9.1113607],[-171.5811767,-9.0732055],[-171.5891487,-9.0405101],[-171.602634,-9.0093767],[-171.6235722,-8.9777189],[-171.6501313,-8.9505512],[-171.6815273,-8.9286301],[-171.7160014,-8.913206],[-171.7531912,-8.9044011],[-171.7932227,-8.9027626],[-171.8327884,-8.9090384],[-171.8482902,-8.9136589],[-171.8533122,-8.9156427],[-171.8868236,-8.9173953],[-171.9215096,-8.9251525],[-171.9542847,-8.9388549],[-171.9859459,-8.9594888],[-172.0110273,-8.9826402],[-172.0318055,-9.0096813],[-172.0476788,-9.0398318],[-172.0581868,-9.072221],[-172.0634791,-9.105627],[-172.0633545,-9.1299142],[-172.0665274,-9.1427018],[-172.0693829,-9.1779052]]],[[[-171.4716162,-9.3840084],[-171.4670528,-9.4202618],[-171.4559284,-9.4550894],[-171.4386108,-9.4873305],[-171.415675,-9.5159095],[-171.387884,-9.539873],[-171.3813706,-9.5436822],[-171.3619165,-9.5716851],[-171.3359498,-9.5974295],[-171.3046507,-9.618666],[-171.2723944,-9.6330998],[-171.2380907,-9.6417163],[-171.2027965,-9.6442499],[-171.1675994,-9.6406223],[-171.1265322,-9.628345],[-171.0888445,-9.6076185],[-171.0568752,-9.5802534],[-171.0463367,-9.5685091],[-171.0229189,-9.5360078],[-171.0075421,-9.5056271],[-171.0015344,-9.4880165],[-170.9971792,-9.4712982],[-170.9931793,-9.4480832],[-170.9923169,-9.4280455],[-170.9893889,-9.4212051],[-170.9814376,-9.38662],[-170.9797586,-9.351186],[-170.9844019,-9.3160156],[-170.9956523,-9.2793657],[-171.0115049,-9.2488604],[-171.0356638,-9.214873],[-171.052224,-9.196238],[-171.0721003,-9.1776527],[-171.0958997,-9.1593655],[-171.1239372,-9.1438395],[-171.1611503,-9.1310936],[-171.1976321,-9.125272],[-171.2321072,-9.1258823],[-171.268394,-9.1330015],[-171.3008406,-9.1451706],[-171.3307095,-9.1626877],[-171.3571165,-9.185035],[-171.3695681,-9.199934],[-171.4009187,-9.2219934],[-171.4259102,-9.2478905],[-171.447204,-9.2802885],[-171.4610347,-9.311993],[-171.4694697,-9.347537],[-171.4716162,-9.3840084]]]]}
        } ]
}
